NORAD_CAT_ID,OBJECT_NAME,OBJECT_TYPE,EPOCH,MEAN_MOTION,ECCENTRICITY,INCLINATION,RA_OF_ASC_NODE,ARG_OF_PERICENTER,MEAN_ANOMALY,BSTAR,MEAN_MOTION_DOT,MEAN_MOTION_DDOT,TLE_LINE0,TLE_LINE1,TLE_LINE2,SEMIMAJOR_AXIS,PERIOD,APOGEE,PERIGEE,DECAYED
53998.0,STARLINK-5128,PAYLOAD,2023-06-20 11:19:37,15.08836928,9.46e-05,53.2177,352.6208,92.9554,267.1546,-0.00010919,-2.025e-05,0.0,0 STARLINK-5128,1 53998U 22125AL  23171.47196301 -.00002025  00000-0 -10919-3 0  9995,2 53998  53.2177 352.6208 0000946  92.9554 267.1546 15.08836928 39520,6917.89,95.438,540.409,539.1,0.0
53998.0,STARLINK-5128,PAYLOAD,2023-06-20 17:41:10,15.08838498,9.41e-05,53.2177,351.4317,91.1187,268.9913,-7.0161e-05,-1.404e-05,0.0,0 STARLINK-5128,1 53998U 22125AL  23171.73692253 -.00001404  00000-0 -70161-4 0  9997,2 53998  53.2177 351.4317 0000941  91.1187 268.9913 15.08838498 39639,6917.885,95.438,540.401,539.099,0.0
53998.0,STARLINK-5128,PAYLOAD,2023-06-20 20:51:56,15.08842156,9.32e-05,53.2179,350.8369,91.1432,268.9667,-1.7423e-05,-5.65e-06,0.0,0 STARLINK-5128,1 53998U 22125AL  23171.86939927 -.00000565  00000-0 -17423-4 0  9992,2 53998  53.2179 350.8369 0000932  91.1432 268.9667 15.08842156 39580,6917.874,95.437,540.384,539.094,0.0
53998.0,STARLINK-5128,PAYLOAD,2023-06-21 19:07:20,15.08843247,0.0001182,53.2174,346.6726,63.7184,296.393,2.3491e-05,8.6e-07,0.0,0 STARLINK-5128,1 53998U 22125AL  23172.79676243  .00000086  00000-0  23491-4 0  9992,2 53998  53.2174 346.6726 0001182  63.7184 296.3930 15.08843247 39795,6917.87,95.437,540.553,538.918,0.0
53998.0,STARLINK-5128,PAYLOAD,2023-06-22 04:39:39,15.08832628,8.91e-05,53.2169,344.8887,98.4364,261.6729,-0.00012263,-2.238e-05,0.0,0 STARLINK-5128,1 53998U 22125AL  23173.19420648 -.00002238  00000-0 -12263-3 0  9990,2 53998  53.2169 344.8887 0000891  98.4364 261.6729 15.08832628 39857,6917.903,95.438,540.384,539.152,0.0
53998.0,STARLINK-5128,PAYLOAD,2023-06-22 17:22:44,15.08841046,8.64e-05,53.2174,342.5104,87.3782,272.7309,0.00014087,1.955e-05,0.0,0 STARLINK-5128,1 53998U 22125AL  23173.72412512  .00001955  00000-0  14087-3 0  9999,2 53998  53.2174 342.5104 0000864  87.3782 272.7309 15.08841046 39931,6917.877,95.437,540.34,539.144,0.0
53998.0,STARLINK-5128,PAYLOAD,2023-06-23 04:30:26,15.0883275,0.0001149,53.2171,340.4288,74.2834,285.8285,-6.5115e-06,-3.91e-06,0.0,0 STARLINK-5128,1 53998U 22125AL  23174.18780992 -.00000391  00000-0 -65115-5 0  9995,2 53998  53.2171 340.4288 0001149  74.2834 285.8285 15.08832750 40008,6917.903,95.438,540.562,538.973,0.0
53998.0,STARLINK-5128,PAYLOAD,2023-06-23 18:48:54,15.08845012,9e-05,53.2166,337.7517,82.8391,277.2704,0.00023295,3.422e-05,0.0,0 STARLINK-5128,1 53998U 22125AL  23174.78396647  .00003422  00000-0  23295-3 0  9998,2 53998  53.2166 337.7517 0000900  82.8391 277.2704 15.08845012 40098,6917.865,95.437,540.353,539.107,0.0
53998.0,STARLINK-5128,PAYLOAD,2023-06-24 17:04:18,15.08847075,0.0001032,53.2174,333.589,83.4919,276.619,0.00033272,5.012e-05,0.0,0 STARLINK-5128,1 53998U 22125AL  23175.71132816  .00005012  00000-0  33272-3 0  9991,2 53998  53.2174 333.5890 0001032  83.4919 276.6190 15.08847075 40234,6917.859,95.437,540.438,539.01,0.0
53998.0,STARLINK-5128,PAYLOAD,2023-06-25 16:55:05,15.08845033,0.0001066,53.2178,329.1283,79.6945,280.4167,0.00017256,2.46e-05,0.0,0 STARLINK-5128,1 53998U 22125AL  23176.70492846  .00002460  00000-0  17256-3 0  9991,2 53998  53.2178 329.1283 0001066  79.6945 280.4167 15.08845033 40383,6917.865,95.437,540.467,538.993,0.0
53998.0,STARLINK-5128,PAYLOAD,2023-06-26 10:24:20,15.088402,0.0001436,53.2158,325.8545,110.6938,249.4208,5.9877e-05,6.65e-06,0.0,0 STARLINK-5128,1 53998U 22125AL  23177.43357009  .00000665  00000-0  59877-4 0  9994,2 53998  53.2158 325.8545 0001436 110.6938 249.4208 15.08840200 40498,6917.88,95.438,540.738,538.751,0.0
53998.0,STARLINK-5128,PAYLOAD,2023-06-27 16:36:40,15.08844169,0.0001068,53.2184,320.2105,88.6329,271.4785,0.00012411,1.688e-05,0.0,0 STARLINK-5128,1 53998U 22125AL  23178.69213014  .00001688  00000-0  12411-3 0  9998,2 53998  53.2184 320.2105 0001068  88.6329 271.4785 15.08844169 40681,6917.868,95.437,540.471,538.994,0.0
53998.0,STARLINK-5128,PAYLOAD,2023-06-28 10:05:54,15.0883783,0.0001044,53.2183,316.9403,97.5761,262.535,6.3975e-05,7.3e-06,0.0,0 STARLINK-5128,1 53998U 22125AL  23179.42077422  .00000730  00000-0  63975-4 0  9990,2 53998  53.2183 316.9403 0001044  97.5761 262.5350 15.08837830 40794,6917.887,95.438,540.474,539.03,0.0
53998.0,STARLINK-5128,PAYLOAD,2023-06-28 19:38:13,15.08846024,0.0001022,53.2183,315.1553,96.7423,263.3685,0.00013896,1.925e-05,0.0,0 STARLINK-5128,1 53998U 22125AL  23179.81820990  .00001925  00000-0  13896-3 0  9992,2 53998  53.2183 315.1553 0001022  96.7423 263.3685 15.08846024 40855,6917.862,95.437,540.434,539.02,0.0
53998.0,STARLINK-5128,PAYLOAD,2023-06-29 17:53:37,15.08842263,0.000101,53.2176,310.9922,81.8259,278.2847,8.0936e-05,1.001e-05,0.0,0 STARLINK-5128,1 53998U 22125AL  23180.74557316  .00001001  00000-0  80936-4 0  9990,2 53998  53.2176 310.9922 0001010  81.8259 278.2847 15.08842263 40990,6917.873,95.437,540.437,539.04,0.0
53998.0,STARLINK-5128,PAYLOAD,2023-07-01 01:41:20,15.08834783,3.56e-05,53.2174,305.0429,102.4925,257.6107,-8.1021e-05,-1.576e-05,0.0,0 STARLINK-5128,1 53998U 22125AL  23182.07037288 -.00001576  00000-0 -81021-4 0  9994,2 53998  53.2174 305.0429 0000356 102.4925 257.6107 15.08834783 41198,6917.896,95.438,540.008,539.515,0.0
53998.0,STARLINK-5128,PAYLOAD,2023-07-02 11:04:26,15.0884185,9.39e-05,53.2168,298.7985,84.8771,275.2329,9.2922e-05,1.191e-05,0.0,0 STARLINK-5128,1 53998U 22125AL  23183.46141425  .00001191  00000-0  92922-4 0  9990,2 53998  53.2168 298.7985 0000939  84.8771 275.2329 15.08841850 41404,6917.875,95.437,540.389,539.09,0.0
53998.0,STARLINK-5128,PAYLOAD,2023-07-03 12:30:36,15.08844204,9.76e-05,53.2173,294.0395,96.9118,263.1986,0.00018073,2.59e-05,0.0,0 STARLINK-5128,1 53998U 22125AL  23184.52125290  .00002590  00000-0  18073-3 0  9998,2 53998  53.2173 294.0395 0000976  96.9118 263.1986 15.08844204 41562,6917.868,95.437,540.408,539.057,0.0
53998.0,STARLINK-5128,PAYLOAD,2023-07-04 12:21:23,15.08838811,8.84e-05,53.2175,289.5834,82.8179,277.2914,7.092e-05,8.41e-06,0.0,0 STARLINK-5128,1 53998U 22125AL  23185.51485636  .00000841  00000-0  70920-4 0  9998,2 53998  53.2175 289.5834 0000884  82.8179 277.2914 15.08838811 41711,6917.884,95.438,540.361,539.137,0.0
53998.0,STARLINK-5128,PAYLOAD,2023-07-05 15:22:57,15.08837121,8.81e-05,53.2168,284.5267,88.6652,271.4441,5.1982e-05,5.4e-06,0.0,0 STARLINK-5128,1 53998U 22125AL  23186.64093826  .00000540  00000-0  51982-4 0  9992,2 53998  53.2168 284.5267 0000881  88.6652 271.4441 15.08837121 41887,6917.889,95.438,540.364,539.145,0.0
53998.0,STARLINK-5128,PAYLOAD,2023-07-06 23:10:39,15.0884391,8.89e-05,53.2163,278.5789,82.3215,277.7878,9.8818e-05,1.285e-05,0.0,0 STARLINK-5128,1 53998U 22125AL  23187.96573827  .00001285  00000-0  98818-4 0  9998,2 53998  53.2163 278.5789 0000889  82.3215 277.7878 15.08843910 42087,6917.868,95.437,540.348,539.118,0.0
53998.0,STARLINK-5128,PAYLOAD,2023-07-08 05:22:59,15.08843428,9.79e-05,53.2159,272.9293,83.7996,276.3108,0.00011222,1.499e-05,0.0,0 STARLINK-5128,1 53998U 22125AL  23189.22429823  .00001499  00000-0  11222-3 0  9995,2 53998  53.2159 272.9293 0000979  83.7996 276.3108 15.08843428 42277,6917.87,95.437,540.412,539.058,0.0
53998.0,STARLINK-5128,PAYLOAD,2023-07-09 11:35:19,15.0883551,9.02e-05,53.2167,267.28,83.9936,276.1159,-4.5559e-07,-2.95e-06,0.0,0 STARLINK-5128,1 53998U 22125AL  23190.48286646 -.00000295  00000-0 -45559-6 0  9997,2 53998  53.2167 267.2800 0000902  83.9936 276.1159 15.08835510 42467,6917.894,95.438,540.383,539.135,0.0
53998.0,STARLINK-5128,PAYLOAD,2023-07-10 11:26:05,15.08844516,8.74e-05,53.2164,262.8178,88.8905,271.2188,0.00014578,2.033e-05,0.0,0 STARLINK-5128,1 53998U 22125AL  23191.47645768  .00002033  00000-0  14578-3 0  9995,2 53998  53.2164 262.8178 0000874  88.8905 271.2188 15.08844516 42612,6917.867,95.437,540.336,539.127,0.0
53998.0,STARLINK-5128,PAYLOAD,2023-07-11 04:55:21,15.08833508,9.39e-05,53.2166,259.5458,90.6193,269.4907,0.00013759,1.902e-05,0.0,0 STARLINK-5128,1 53998U 22125AL  23192.20510613  .00001902  00000-0  13759-3 0  9991,2 53998  53.2166 259.5458 0000939  90.6193 269.4907 15.08833508 42729,6917.9,95.438,540.415,539.116,0.0
53998.0,STARLINK-5128,PAYLOAD,2023-07-11 16:03:02,15.08842416,9.35e-05,53.2165,257.464,88.2948,271.8152,0.00013185,1.811e-05,0.0,0 STARLINK-5128,1 53998U 22125AL  23192.66878049  .00001811  00000-0  13185-3 0  9993,2 53998  53.2165 257.4640 0000935  88.2948 271.8152 15.08842416 42799,6917.873,95.437,540.385,539.091,0.0
53998.0,STARLINK-5128,PAYLOAD,2023-07-12 03:10:45,15.0883807,9.32e-05,53.2171,255.3832,93.366,266.7439,7.1902e-05,8.57e-06,0.0,0 STARLINK-5128,1 53998U 22125AL  23193.13246540  .00000857  00000-0  71902-4 0  9992,2 53998  53.2171 255.3832 0000932  93.3660 266.7439 15.08838070 42861,6917.886,95.438,540.396,539.107,0.0
53998.0,STARLINK-5128,PAYLOAD,2023-07-12 12:43:03,15.08845164,0.0001015,53.2163,253.5997,84.8543,275.2565,7.2342e-05,8.64e-06,0.0,0 STARLINK-5128,1 53998U 22125AL  23193.52989999  .00000864  00000-0  72342-4 0  9994,2 53998  53.2163 253.5997 0001015  84.8543 275.2565 15.08845164 42926,6917.865,95.437,540.432,539.027,0.0
53998.0,STARLINK-5128,PAYLOAD,2023-07-13 14:09:13,15.08841113,9.87e-05,53.2168,248.842,88.3034,271.8072,5.0109e-05,5.1e-06,0.0,0 STARLINK-5128,1 53998U 22125AL  23194.58974487  .00000510  00000-0  50109-4 0  9992,2 53998  53.2168 248.8420 0000987  88.3034 271.8072 15.08841113 43083,6917.877,95.437,540.425,539.059,0.0
53998.0,STARLINK-5128,PAYLOAD,2023-07-14 10:49:15,15.08837443,0.0001014,53.2161,244.976,80.7006,279.4101,3.0635e-05,2e-06,0.0,0 STARLINK-5128,1 53998U 22125AL  23195.45086984  .00000200  00000-0  30635-4 0  9993,2 53998  53.2161 244.9760 0001014  80.7006 279.4101 15.08837443 43210,6917.888,95.438,540.455,539.052,0.0
